{"type": "FeatureCollection", "features": [{"type": "Feature", "properties": {"norad_id": 2807, "name": "OPS 7218 (TRANSIT 16)", "group": "nnss", "lat": 27.49645175347302, "lon": 174.05660202037566, "alt_km": 1053.4682018180174, "timestamp": "2025-12-06T09:34:17.182225+00:00", "meta": {"OBJECT_NAME": "OPS 7218 (TRANSIT 16)", "OBJECT_ID": "1967-048A", "EPOCH": "2025-12-06T00:04:17.891904", "MEAN_MOTION": 13.50720333, "ECCENTRICITY": 0.00216313, "INCLINATION": 89.6733, "RA_OF_ASC_NODE": 354.2398, "ARG_OF_PERICENTER": 132.2001, "MEAN_ANOMALY": 256.5241, "EPHEMERIS_TYPE": 0, "CLASSIFICATION_TYPE": "U", "NORAD_CAT_ID": 2807, "ELEMENT_SET_NO": 999, "REV_AT_EPOCH": 88185, "BSTAR": 0.00025066895, "MEAN_MOTION_DOT": 1.72e-06, "MEAN_MOTION_DDOT": 0}, "tle": {"line1": "1 02807U 67048A   25340.00298486  .00000172  00000+0  25067-3 0  9995", "line2": "2 02807  89.6733 354.2398 0021631 132.2001 256.5241 13.50720333881853"}}, "geometry": {"type": "Point", "coordinates": [174.05660202037566, 27.49645175347302]}}, {"type": "Feature", "properties": {"norad_id": 2965, "name": "OPS 4947 (TRANSIT 17)", "group": "nnss", "lat": 25.879778226544108, "lon": -155.44468155665206, "alt_km": 1064.239243933711, "timestamp": "2025-12-06T09:34:17.182248+00:00", "meta": {"OBJECT_NAME": "OPS 4947 (TRANSIT 17)", "OBJECT_ID": "1967-092A", "EPOCH": "2025-12-05T21:14:54.385152", "MEAN_MOTION": 13.53451157, "ECCENTRICITY": 0.00458464, "INCLINATION": 89.2503, "RA_OF_ASC_NODE": 24.9583, "ARG_OF_PERICENTER": 255.0879, "MEAN_ANOMALY": 279.1541, "EPHEMERIS_TYPE": 0, "CLASSIFICATION_TYPE": "U", "NORAD_CAT_ID": 2965, "ELEMENT_SET_NO": 999, "REV_AT_EPOCH": 87004, "BSTAR": 0.0003103912, "MEAN_MOTION_DOT": 2.21e-06, "MEAN_MOTION_DDOT": 0}, "tle": {"line1": "1 02965U 67092A   25339.88535168  .00000221  00000+0  31039-3 0  9995", "line2": "2 02965  89.2503  24.9583 0045846 255.0879 279.1541 13.53451157870048"}}, "geometry": {"type": "Point", "coordinates": [-155.44468155665206, 25.879778226544108]}}, {"type": "Feature", "properties": {"norad_id": 3133, "name": "OPS 7034 (TRANSIT 18)", "group": "nnss", "lat": -13.04547451664213, "lon": -86.37261407722463, "alt_km": 1122.0118731207594, "timestamp": "2025-12-06T09:34:17.182261+00:00", "meta": {"OBJECT_NAME": "OPS 7034 (TRANSIT 18)", "OBJECT_ID": "1968-012A", "EPOCH": "2025-12-05T21:31:36.702048", "MEAN_MOTION": 13.51563444, "ECCENTRICITY": 0.0073213, "INCLINATION": 90.0272, "RA_OF_ASC_NODE": 273.6197, "ARG_OF_PERICENTER": 189.0449, "MEAN_ANOMALY": 237.3312, "EPHEMERIS_TYPE": 0, "CLASSIFICATION_TYPE": "U", "NORAD_CAT_ID": 3133, "ELEMENT_SET_NO": 999, "REV_AT_EPOCH": 56826, "BSTAR": 0.00026501947, "MEAN_MOTION_DOT": 1.85e-06, "MEAN_MOTION_DDOT": 0}, "tle": {"line1": "1 03133U 68012A   25339.89695257  .00000185  00000+0  26502-3 0  9991", "line2": "2 03133  90.0272 273.6197 0073213 189.0449 237.3312 13.51563444568262"}}, "geometry": {"type": "Point", "coordinates": [-86.37261407722463, -13.04547451664213]}}, {"type": "Feature", "properties": {"norad_id": 4507, "name": "NNSS 19 (TRANSIT 19)", "group": "nnss", "lat": -35.721927100224576, "lon": -125.46643989693436, "alt_km": 949.3031395003991, "timestamp": "2025-12-06T09:34:17.182273+00:00", "meta": {"OBJECT_NAME": "NNSS 19 (TRANSIT 19)", "OBJECT_ID": "1970-067A", "EPOCH": "2025-12-05T17:44:56.395968", "MEAN_MOTION": 13.51312382, "ECCENTRICITY": 0.0171015, "INCLINATION": 90.0058, "RA_OF_ASC_NODE": 234.529, "ARG_OF_PERICENTER": 313.8154, "MEAN_ANOMALY": 44.8961, "EPHEMERIS_TYPE": 0, "CLASSIFICATION_TYPE": "U", "NORAD_CAT_ID": 4507, "ELEMENT_SET_NO": 999, "REV_AT_EPOCH": 72127, "BSTAR": 0.00035550443, "MEAN_MOTION_DOT": 2.6e-06, "MEAN_MOTION_DDOT": 0}, "tle": {"line1": "1 04507U 70067A   25339.73954162  .00000260  00000+0  35550-3 0  9993", "line2": "2 04507  90.0058 234.5290 0171015 313.8154  44.8961 13.51312382721275"}}, "geometry": {"type": "Point", "coordinates": [-125.46643989693436, -35.721927100224576]}}, {"type": "Feature", "properties": {"norad_id": 6909, "name": "NNSS 20 (TRANSIT 20)", "group": "nnss", "lat": -62.66911994499637, "lon": -105.12999567141762, "alt_km": 1109.7476748859071, "timestamp": "2025-12-06T09:34:17.182285+00:00", "meta": {"OBJECT_NAME": "NNSS 20 (TRANSIT 20)", "OBJECT_ID": "1973-081A", "EPOCH": "2025-12-05T18:07:21.224928", "MEAN_MOTION": 13.71429624, "ECCENTRICITY": 0.01565339, "INCLINATION": 89.8558, "RA_OF_ASC_NODE": 255.1589, "ARG_OF_PERICENTER": 98.9986, "MEAN_ANOMALY": 262.893, "EPHEMERIS_TYPE": 0, "CLASSIFICATION_TYPE": "U", "NORAD_CAT_ID": 6909, "ELEMENT_SET_NO": 999, "REV_AT_EPOCH": 80265, "BSTAR": 0.00036936938, "MEAN_MOTION_DOT": 3.74e-06, "MEAN_MOTION_DDOT": 0}, "tle": {"line1": "1 06909U 73081A   25339.75510677  .00000374  00000+0  36937-3 0  9997", "line2": "2 06909  89.8558 255.1589 0156533  98.9986 262.8930 13.71429624802656"}}, "geometry": {"type": "Point", "coordinates": [-105.12999567141762, -62.66911994499637]}}, {"type": "Feature", "properties": {"norad_id": 10457, "name": "TRANSAT", "group": "nnss", "lat": 22.90506534794041, "lon": 78.97014246141032, "alt_km": 1094.1337303993878, "timestamp": "2025-12-06T09:34:17.182296+00:00", "meta": {"OBJECT_NAME": "TRANSAT", "OBJECT_ID": "1977-106A", "EPOCH": "2025-12-05T19:46:13.467936", "MEAN_MOTION": 13.48941961, "ECCENTRICITY": 0.00247644, "INCLINATION": 89.6483, "RA_OF_ASC_NODE": 78.8418, "ARG_OF_PERICENTER": 209.8689, "MEAN_ANOMALY": 262.2526, "EPHEMERIS_TYPE": 0, "CLASSIFICATION_TYPE": "U", "NORAD_CAT_ID": 10457, "ELEMENT_SET_NO": 999, "REV_AT_EPOCH": 36650, "BSTAR": 0.00020972293, "MEAN_MOTION_DOT": 1.42e-06, "MEAN_MOTION_DDOT": 0}, "tle": {"line1": "1 10457U 77106A   25339.82376699  .00000142  00000+0  20972-3 0  9999", "line2": "2 10457  89.6483  78.8418 0024764 209.8689 262.2526 13.48941961366509"}}, "geometry": {"type": "Point", "coordinates": [78.97014246141032, 22.90506534794041]}}, {"type": "Feature", "properties": {"norad_id": 12458, "name": "NOVA 1", "group": "nnss", "lat": 30.23958673822151, "lon": -88.61128654393019, "alt_km": 1160.4180864436603, "timestamp": "2025-12-06T09:34:17.182307+00:00", "meta": {"OBJECT_NAME": "NOVA 1", "OBJECT_ID": "1981-044A", "EPOCH": "2025-12-05T20:44:08.520000", "MEAN_MOTION": 13.23277436, "ECCENTRICITY": 0.00156501, "INCLINATION": 89.8524, "RA_OF_ASC_NODE": 91.4824, "ARG_OF_PERICENTER": 120.9242, "MEAN_ANOMALY": 2.3413, "EPHEMERIS_TYPE": 0, "CLASSIFICATION_TYPE": "U", "NORAD_CAT_ID": 12458, "ELEMENT_SET_NO": 999, "REV_AT_EPOCH": 15095, "BSTAR": 0.00017933302, "MEAN_MOTION_DOT": 8.5e-07, "MEAN_MOTION_DDOT": 0}, "tle": {"line1": "1 12458U 81044A   25339.86398750  .00000085  00000+0  17933-3 0  9993", "line2": "2 12458  89.8524  91.4824 0015650 120.9242   2.3413 13.23277436150954"}}, "geometry": {"type": "Point", "coordinates": [-88.61128654393019, 30.23958673822151]}}, {"type": "Feature", "properties": {"norad_id": 15362, "name": "NOVA 3", "group": "nnss", "lat": 27.71583562145545, "lon": 80.39551187070872, "alt_km": 1153.419815852193, "timestamp": "2025-12-06T09:34:17.182318+00:00", "meta": {"OBJECT_NAME": "NOVA 3", "OBJECT_ID": "1984-110A", "EPOCH": "2025-12-05T21:20:06.144864", "MEAN_MOTION": 13.23043281, "ECCENTRICITY": 0.00310627, "INCLINATION": 90.1225, "RA_OF_ASC_NODE": 80.4539, "ARG_OF_PERICENTER": 351.1717, "MEAN_ANOMALY": 129.4343, "EPHEMERIS_TYPE": 0, "CLASSIFICATION_TYPE": "U", "NORAD_CAT_ID": 15362, "ELEMENT_SET_NO": 999, "REV_AT_EPOCH": 98608, "BSTAR": 0.00023552905, "MEAN_MOTION_DOT": 1.08e-06, "MEAN_MOTION_DDOT": 0}, "tle": {"line1": "1 15362U 84110A   25339.88896001  .00000108  00000+0  23553-3 0  9992", "line2": "2 15362  90.1225  80.4539 0031062 351.1717 129.4343 13.23043281986088"}}, "geometry": {"type": "Point", "coordinates": [80.39551187070872, 27.71583562145545]}}, {"type": "Feature", "properties": {"norad_id": 15935, "name": "OSCAR 30", "group": "nnss", "lat": 6.794787522944915, "lon": -80.23688748306918, "alt_km": 1083.7033147280854, "timestamp": "2025-12-06T09:34:17.182328+00:00", "meta": {"OBJECT_NAME": "OSCAR 30", "OBJECT_ID": "1985-066A", "EPOCH": "2025-12-05T22:31:43.286016", "MEAN_MOTION": 13.36076487, "ECCENTRICITY": 0.0169362, "INCLINATION": 90.1648, "RA_OF_ASC_NODE": 99.736, "ARG_OF_PERICENTER": 102.8839, "MEAN_ANOMALY": 16.5809, "EPHEMERIS_TYPE": 0, "CLASSIFICATION_TYPE": "U", "NORAD_CAT_ID": 15935, "ELEMENT_SET_NO": 999, "REV_AT_EPOCH": 96362, "BSTAR": 0.00023154159, "MEAN_MOTION_DOT": 1.39e-06, "MEAN_MOTION_DDOT": 0}, "tle": {"line1": "1 15935U 85066A   25339.93869544  .00000139  00000+0  23154-3 0  9998", "line2": "2 15935  90.1648  99.7360 0169362 102.8839  16.5809 13.36076487963625"}}, "geometry": {"type": "Point", "coordinates": [-80.23688748306918, 6.794787522944915]}}, {"type": "Feature", "properties": {"norad_id": 15936, "name": "OSCAR 24", "group": "nnss", "lat": -71.07478557595101, "lon": -88.32853139419596, "alt_km": 1233.1786015301586, "timestamp": "2025-12-06T09:34:17.182339+00:00", "meta": {"OBJECT_NAME": "OSCAR 24", "OBJECT_ID": "1985-066B", "EPOCH": "2025-12-05T22:09:38.082816", "MEAN_MOTION": 13.35934235, "ECCENTRICITY": 0.01703785, "INCLINATION": 90.1788, "RA_OF_ASC_NODE": 92.1849, "ARG_OF_PERICENTER": 109.3653, "MEAN_ANOMALY": 15.201, "EPHEMERIS_TYPE": 0, "CLASSIFICATION_TYPE": "U", "NORAD_CAT_ID": 15936, "ELEMENT_SET_NO": 999, "REV_AT_EPOCH": 96552, "BSTAR": 0.00022573682, "MEAN_MOTION_DOT": 1.36e-06, "MEAN_MOTION_DDOT": 0}, "tle": {"line1": "1 15936U 85066B   25339.92335744  .00000136  00000+0  22574-3 0  9990", "line2": "2 15936  90.1788  92.1849 0170378 109.3653  15.2010 13.35934235965529"}}, "geometry": {"type": "Point", "coordinates": [-88.32853139419596, -71.07478557595101]}}]}